UNKNOWN                 
1 85430U          26026.68381291  .01102801  65252-3  17938-2 0  9990
2 85430  53.2147 236.7622 0003262 171.8494 188.2593 16.02882600    19
UNKNOWN                 
1 87014U          26032.41619205  .00002320  00000+0  35763-2 0  9993
2 87014 100.4848   4.5172 0045971 111.6645  42.0097 13.52143392597765
UNKNOWN                 
1 87029U          26025.05506437  .00001565  00000+0  97435-3 0  9998
2 87029  98.7531  63.7773 0083011 128.8755 231.9856 14.04608677599081
UNKNOWN                 
1 87042U          26033.08734815  .00000662  00000+0  41701-3 0  9990
2 87042  98.7086  79.4413 0042089 310.3863  49.3636 14.07215110561180
UNKNOWN                 
1 87051U          26033.54187514  .00001720  00000+0  62157-3 0  9993
2 87051  65.7303 130.8238 0710305 117.6669 249.8301 13.46152871595558
UNKNOWN                 
1 87054U          26033.62682767  .00001978  00000+0  11232-2 0  9997
2 87054 100.0922 284.4216 0012111 202.2711 157.7931 14.11324617623642
UNKNOWN                 
1 87071U          26033.60820455  .00007043  00000+0  25443-2 0  9990
2 87071  61.2207 117.6227 0473355 263.5482  91.1459 13.86210142609671
UNKNOWN                 
1 87129U          26033.20308437  .00000138  00000+0  13306-2 0  9994
2 87129 102.2581 129.7834 0027464 345.3410  14.6855 12.42840008553062
UNKNOWN                 
1 87159U          26032.52954121  .00001416  00000+0  16389-2 0  9992
2 87159  90.3467  71.2370 0106980 107.0563 254.2350 13.66214892563622
UNKNOWN                 
1 87163U          26033.17995182  .00001195  00000+0  38133-3 0  9997
2 87163  65.5997 109.4022 0644351  41.5230 323.2963 13.64184248584538
UNKNOWN                 
1 87164U          26033.66380016  .00003714  00000+0  75779-3 0  9992
2 87164  65.2031 176.8380 0102754  30.4999 330.2021 14.58972244643348
UNKNOWN                 
1 87204U          26033.57810507  .00002125  00000+0  83676-3 0  9990
2 87204  98.5345 258.3592 0045054 171.0580 189.1415 14.29646125632843
