CCSDS_OMM_VERS = 2.0
CREATION_DATE  = 
ORIGINATOR     = 

OBJECT_NAME    = UNKNOWN
OBJECT_ID      = 
CENTER_NAME    = EARTH
REF_FRAME      = TEME
TIME_SYSTEM    = UTC
MEAN_ELEMENT_THEORY = SGP/SGP4

EPOCH          = 2026-01-26T16:24:41.435424
MEAN_MOTION    = 16.02882600
ECCENTRICITY   = .0003262
INCLINATION    = 53.2147
RA_OF_ASC_NODE = 236.7622
ARG_OF_PERICENTER = 171.8494
MEAN_ANOMALY   = 188.2593

EPHEMERIS_TYPE = 0
CLASSIFICATION_TYPE = U
NORAD_CAT_ID   = 85430
ELEMENT_SET_NO = 999
REV_AT_EPOCH   = 1
BSTAR          = .17938E-2
MEAN_MOTION_DOT = .1102801E-1
MEAN_MOTION_DDOT = .65252E-3

CCSDS_OMM_VERS = 2.0
CREATION_DATE  = 
ORIGINATOR     = 

OBJECT_NAME    = UNKNOWN
OBJECT_ID      = 
CENTER_NAME    = EARTH
REF_FRAME      = TEME
TIME_SYSTEM    = UTC
MEAN_ELEMENT_THEORY = SGP/SGP4

EPOCH          = 2026-02-01T09:59:18.993120
MEAN_MOTION    = 13.52143392
ECCENTRICITY   = .0045971
INCLINATION    = 100.4848
RA_OF_ASC_NODE = 4.5172
ARG_OF_PERICENTER = 111.6645
MEAN_ANOMALY   = 42.0097

EPHEMERIS_TYPE = 0
CLASSIFICATION_TYPE = U
NORAD_CAT_ID   = 87014
ELEMENT_SET_NO = 999
REV_AT_EPOCH   = 59776
BSTAR          = .35763E-2
MEAN_MOTION_DOT = .232E-4
MEAN_MOTION_DDOT = 0

CCSDS_OMM_VERS = 2.0
CREATION_DATE  = 
ORIGINATOR     = 

OBJECT_NAME    = UNKNOWN
OBJECT_ID      = 
CENTER_NAME    = EARTH
REF_FRAME      = TEME
TIME_SYSTEM    = UTC
MEAN_ELEMENT_THEORY = SGP/SGP4

EPOCH          = 2026-01-25T01:19:17.561568
MEAN_MOTION    = 14.04608677
ECCENTRICITY   = .0083011
INCLINATION    = 98.7531
RA_OF_ASC_NODE = 63.7773
ARG_OF_PERICENTER = 128.8755
MEAN_ANOMALY   = 231.9856

EPHEMERIS_TYPE = 0
CLASSIFICATION_TYPE = U
NORAD_CAT_ID   = 87029
ELEMENT_SET_NO = 999
REV_AT_EPOCH   = 59908
BSTAR          = .97435E-3
MEAN_MOTION_DOT = .1565E-4
MEAN_MOTION_DDOT = 0

CCSDS_OMM_VERS = 2.0
CREATION_DATE  = 
ORIGINATOR     = 

OBJECT_NAME    = UNKNOWN
OBJECT_ID      = 
CENTER_NAME    = EARTH
REF_FRAME      = TEME
TIME_SYSTEM    = UTC
MEAN_ELEMENT_THEORY = SGP/SGP4

EPOCH          = 2026-02-02T02:05:46.880160
MEAN_MOTION    = 14.07215110
ECCENTRICITY   = .0042089
INCLINATION    = 98.7086
RA_OF_ASC_NODE = 79.4413
ARG_OF_PERICENTER = 310.3863
MEAN_ANOMALY   = 49.3636

EPHEMERIS_TYPE = 0
CLASSIFICATION_TYPE = U
NORAD_CAT_ID   = 87042
ELEMENT_SET_NO = 999
REV_AT_EPOCH   = 56118
BSTAR          = .41701E-3
MEAN_MOTION_DOT = .662E-5
MEAN_MOTION_DDOT = 0

CCSDS_OMM_VERS = 2.0
CREATION_DATE  = 
ORIGINATOR     = 

OBJECT_NAME    = UNKNOWN
OBJECT_ID      = 
CENTER_NAME    = EARTH
REF_FRAME      = TEME
TIME_SYSTEM    = UTC
MEAN_ELEMENT_THEORY = SGP/SGP4

EPOCH          = 2026-02-02T13:00:18.012096
MEAN_MOTION    = 13.46152871
ECCENTRICITY   = .0710305
INCLINATION    = 65.7303
RA_OF_ASC_NODE = 130.8238
ARG_OF_PERICENTER = 117.6669
MEAN_ANOMALY   = 249.8301

EPHEMERIS_TYPE = 0
CLASSIFICATION_TYPE = U
NORAD_CAT_ID   = 87051
ELEMENT_SET_NO = 999
REV_AT_EPOCH   = 59555
BSTAR          = .62157E-3
MEAN_MOTION_DOT = .172E-4
MEAN_MOTION_DDOT = 0

CCSDS_OMM_VERS = 2.0
CREATION_DATE  = 
ORIGINATOR     = 

OBJECT_NAME    = UNKNOWN
OBJECT_ID      = 
CENTER_NAME    = EARTH
REF_FRAME      = TEME
TIME_SYSTEM    = UTC
MEAN_ELEMENT_THEORY = SGP/SGP4

EPOCH          = 2026-02-02T15:02:37.910688
MEAN_MOTION    = 14.11324617
ECCENTRICITY   = .0012111
INCLINATION    = 100.0922
RA_OF_ASC_NODE = 284.4216
ARG_OF_PERICENTER = 202.2711
MEAN_ANOMALY   = 157.7931

EPHEMERIS_TYPE = 0
CLASSIFICATION_TYPE = U
NORAD_CAT_ID   = 87054
ELEMENT_SET_NO = 999
REV_AT_EPOCH   = 62364
BSTAR          = .11232E-2
MEAN_MOTION_DOT = .1978E-4
MEAN_MOTION_DDOT = 0

CCSDS_OMM_VERS = 2.0
CREATION_DATE  = 
ORIGINATOR     = 

OBJECT_NAME    = UNKNOWN
OBJECT_ID      = 
CENTER_NAME    = EARTH
REF_FRAME      = TEME
TIME_SYSTEM    = UTC
MEAN_ELEMENT_THEORY = SGP/SGP4

EPOCH          = 2026-02-02T14:35:48.873120
MEAN_MOTION    = 13.86210142
ECCENTRICITY   = .0473355
INCLINATION    = 61.2207
RA_OF_ASC_NODE = 117.6227
ARG_OF_PERICENTER = 263.5482
MEAN_ANOMALY   = 91.1459

EPHEMERIS_TYPE = 0
CLASSIFICATION_TYPE = U
NORAD_CAT_ID   = 87071
ELEMENT_SET_NO = 999
REV_AT_EPOCH   = 60967
BSTAR          = .25443E-2
MEAN_MOTION_DOT = .7043E-4
MEAN_MOTION_DDOT = 0

CCSDS_OMM_VERS = 2.0
CREATION_DATE  = 
ORIGINATOR     = 

OBJECT_NAME    = UNKNOWN
OBJECT_ID      = 
CENTER_NAME    = EARTH
REF_FRAME      = TEME
TIME_SYSTEM    = UTC
MEAN_ELEMENT_THEORY = SGP/SGP4

EPOCH          = 2026-02-02T04:52:26.489568
MEAN_MOTION    = 12.42840008
ECCENTRICITY   = .0027464
INCLINATION    = 102.2581
RA_OF_ASC_NODE = 129.7834
ARG_OF_PERICENTER = 345.3410
MEAN_ANOMALY   = 14.6855

EPHEMERIS_TYPE = 0
CLASSIFICATION_TYPE = U
NORAD_CAT_ID   = 87129
ELEMENT_SET_NO = 999
REV_AT_EPOCH   = 55306
BSTAR          = .13306E-2
MEAN_MOTION_DOT = .138E-5
MEAN_MOTION_DDOT = 0

CCSDS_OMM_VERS = 2.0
CREATION_DATE  = 
ORIGINATOR     = 

OBJECT_NAME    = UNKNOWN
OBJECT_ID      = 
CENTER_NAME    = EARTH
REF_FRAME      = TEME
TIME_SYSTEM    = UTC
MEAN_ELEMENT_THEORY = SGP/SGP4

EPOCH          = 2026-02-01T12:42:32.360544
MEAN_MOTION    = 13.66214892
ECCENTRICITY   = .010698
INCLINATION    = 90.3467
RA_OF_ASC_NODE = 71.2370
ARG_OF_PERICENTER = 107.0563
MEAN_ANOMALY   = 254.2350

EPHEMERIS_TYPE = 0
CLASSIFICATION_TYPE = U
NORAD_CAT_ID   = 87159
ELEMENT_SET_NO = 999
REV_AT_EPOCH   = 56362
BSTAR          = .16389E-2
MEAN_MOTION_DOT = .1416E-4
MEAN_MOTION_DDOT = 0

CCSDS_OMM_VERS = 2.0
CREATION_DATE  = 
ORIGINATOR     = 

OBJECT_NAME    = UNKNOWN
OBJECT_ID      = 
CENTER_NAME    = EARTH
REF_FRAME      = TEME
TIME_SYSTEM    = UTC
MEAN_ELEMENT_THEORY = SGP/SGP4

EPOCH          = 2026-02-02T04:19:07.837248
MEAN_MOTION    = 13.64184248
ECCENTRICITY   = .0644351
INCLINATION    = 65.5997
RA_OF_ASC_NODE = 109.4022
ARG_OF_PERICENTER = 41.5230
MEAN_ANOMALY   = 323.2963

EPHEMERIS_TYPE = 0
CLASSIFICATION_TYPE = U
NORAD_CAT_ID   = 87163
ELEMENT_SET_NO = 999
REV_AT_EPOCH   = 58453
BSTAR          = .38133E-3
MEAN_MOTION_DOT = .1195E-4
MEAN_MOTION_DDOT = 0

CCSDS_OMM_VERS = 2.0
CREATION_DATE  = 
ORIGINATOR     = 

OBJECT_NAME    = UNKNOWN
OBJECT_ID      = 
CENTER_NAME    = EARTH
REF_FRAME      = TEME
TIME_SYSTEM    = UTC
MEAN_ELEMENT_THEORY = SGP/SGP4

EPOCH          = 2026-02-02T15:55:52.333824
MEAN_MOTION    = 14.58972244
ECCENTRICITY   = .0102754
INCLINATION    = 65.2031
RA_OF_ASC_NODE = 176.8380
ARG_OF_PERICENTER = 30.4999
MEAN_ANOMALY   = 330.2021

EPHEMERIS_TYPE = 0
CLASSIFICATION_TYPE = U
NORAD_CAT_ID   = 87164
ELEMENT_SET_NO = 999
REV_AT_EPOCH   = 64334
BSTAR          = .75779E-3
MEAN_MOTION_DOT = .3714E-4
MEAN_MOTION_DDOT = 0

CCSDS_OMM_VERS = 2.0
CREATION_DATE  = 
ORIGINATOR     = 

OBJECT_NAME    = UNKNOWN
OBJECT_ID      = 
CENTER_NAME    = EARTH
REF_FRAME      = TEME
TIME_SYSTEM    = UTC
MEAN_ELEMENT_THEORY = SGP/SGP4

EPOCH          = 2026-02-02T13:52:28.278048
MEAN_MOTION    = 14.29646125
ECCENTRICITY   = .0045054
INCLINATION    = 98.5345
RA_OF_ASC_NODE = 258.3592
ARG_OF_PERICENTER = 171.0580
MEAN_ANOMALY   = 189.1415

EPHEMERIS_TYPE = 0
CLASSIFICATION_TYPE = U
NORAD_CAT_ID   = 87204
ELEMENT_SET_NO = 999
REV_AT_EPOCH   = 63284
BSTAR          = .83676E-3
MEAN_MOTION_DOT = .2125E-4
MEAN_MOTION_DDOT = 0

